[{"OBJECT_NAME":"STARLINK-32638","OBJECT_ID":"2024-249R","EPOCH":"2026-03-09T03:06:16.758432","MEAN_MOTION":15.27592589,"ECCENTRICITY":0.00017334,"INCLINATION":43.0007,"RA_OF_ASC_NODE":328.8669,"ARG_OF_PERICENTER":264.6868,"MEAN_ANOMALY":95.3785,"EPHEMERIS_TYPE":0,"CLASSIFICATION_TYPE":"U","NORAD_CAT_ID":62424,"ELEMENT_SET_NO":999,"REV_AT_EPOCH":6759,"BSTAR":0.0012226824,"MEAN_MOTION_DOT":0.0003355,"MEAN_MOTION_DDOT":0},{"OBJECT_NAME":"FENGYUN 1C DEB","OBJECT_ID":"1999-025BQF","EPOCH":"2026-03-08T19:58:36.101856","MEAN_MOTION":15.15826086,"ECCENTRICITY":0.00798835,"INCLINATION":98.9812,"RA_OF_ASC_NODE":89.4872,"ARG_OF_PERICENTER":83.7388,"MEAN_ANOMALY":277.2932,"EPHEMERIS_TYPE":0,"CLASSIFICATION_TYPE":"U","NORAD_CAT_ID":31327,"ELEMENT_SET_NO":999,"REV_AT_EPOCH":1401,"BSTAR":0.0018254058,"MEAN_MOTION_DOT":0.00037915,"MEAN_MOTION_DDOT":0}]
